*******************************************************************************
Ephemeris / WWW_USER Mon Mar 24 08:55:27 2025 Pasadena, USA      / Horizons    
*******************************************************************************
Target body name: (2018 PC20)                     {source: JPL#4}
Center body name: Earth (399)                     {source: DE441}
Center-site name: Mauna Kea
*******************************************************************************
Start time      : A.D. 2018-Sep-13 04:36:00.0000 UT      
Stop  time      : A.D. 2018-Sep-13 15:59:00.0000 UT      
Step-size       : 1 minutes
*******************************************************************************
Target pole/equ : undefined
Target radii    : undefined                                                    
Center geodetic : 204.5278, 19.8260847, 4.21024   {E-lon(deg),Lat(deg),Alt(km)}
Center cylindric: 204.5278, 6006.35451, 2151.0229 {E-lon(deg),Dxy(km),Dz(km)}
Center pole/equ : ITRF93                          {East-longitude positive}
Center radii    : 6378.137, 6378.137, 6356.752 km {Equator_a, b, pole_c}       
Target primary  : Sun
Vis. interferer : MOON (R_eq= 1737.400) km        {source: DE441}
Rel. light bend : Sun                             {source: DE441}
Rel. lght bnd GM: 1.3271E+11 km^3/s^2                                          
Small-body perts: Yes                             {source: SB441-N16}
Atmos refraction: NO (AIRLESS)
RA format       : HMS
Time format     : CAL 
Calendar mode   : Mixed Julian/Gregorian
RTS-only print  : NO       
EOP file        : eop.250321.p250617                                           
EOP coverage    : DATA-BASED 1962-JAN-20 TO 2025-MAR-21. PREDICTS-> 2025-JUN-16
Units conversion: 1 au= 149597870.700 km, c= 299792.458 km/s, 1 day= 86400.0 s 
Table cut-offs 1: Elevation (-90.0deg=NO ),Airmass (>38.000=NO), Daylight (YES)
Table cut-offs 2: Solar elongation (  0.0,180.0=NO ),Local Hour Angle( 0.0=NO )
Table cut-offs 3: RA/DEC angular rate (     0.0=NO )                           
*******************************************************************************
Initial IAU76/J2000 heliocentric ecliptic osculating elements (au, days, deg.):
  EPOCH=  2458343.5 ! 2018-Aug-13.00 (TDB)         Residual RMS= .24519        
   EC= .404352607301711    QR= 1.018354806317198   TP= 2458318.6524357731      
   OM= 139.299704166656    W=  153.5303944744985   IN= 8.986086735514593       
  Equivalent ICRF heliocentric cartesian coordinates (au, au/d):
   X= 8.116079301925467E-01  Y=-6.140581064636024E-01  Z=-2.698058679324596E-01
  VX= 1.436448164656351E-02 VY= 1.329561442287599E-02 VZ= 2.429594529488231E-03
Asteroid physical parameters (km, seconds, rotational period in hours):        
   GM= n.a.                RAD= n.a.               ROTPER= n.a.                
   H= 25.2                 G= .150                 B-V= n.a.                   
                           ALBEDO= n.a.            STYP= n.a.                  
*******************************************************************************
 Date__(UT)__HR:MN     R.A._________(ICRF)_________DEC
******************************************************
$$SOE
 2018-Sep-13 14:51     00 17 37.172224 -30 55 57.42054
 2018-Sep-13 14:52     00 17 37.171863 -30 55 57.18780
 2018-Sep-13 14:53     00 17 37.171553 -30 55 56.95480
 2018-Sep-13 14:54     00 17 37.171295 -30 55 56.72155
 2018-Sep-13 14:55     00 17 37.171089 -30 55 56.48805
 2018-Sep-13 14:56 A   00 17 37.170935 -30 55 56.25430
 2018-Sep-13 14:57 A   00 17 37.170833 -30 55 56.02030
 2018-Sep-13 14:58 A   00 17 37.170783 -30 55 55.78605
 2018-Sep-13 14:59 A   00 17 37.170786 -30 55 55.55156
 2018-Sep-13 15:00 A   00 17 37.170842 -30 55 55.31683
 2018-Sep-13 15:01 A   00 17 37.170950 -30 55 55.08185
 2018-Sep-13 15:02 A   00 17 37.171111 -30 55 54.84663
 2018-Sep-13 15:03 A   00 17 37.171325 -30 55 54.61117
 2018-Sep-13 15:04 A   00 17 37.171593 -30 55 54.37548
 2018-Sep-13 15:05 A   00 17 37.171914 -30 55 54.13955
 2018-Sep-13 15:06 A   00 17 37.172288 -30 55 53.90338
 2018-Sep-13 15:07 A   00 17 37.172717 -30 55 53.66699
 2018-Sep-13 15:08 A   00 17 37.173198 -30 55 53.43036
 2018-Sep-13 15:09 A   00 17 37.173734 -30 55 53.19350
 2018-Sep-13 15:10 A   00 17 37.174324 -30 55 52.95642
 2018-Sep-13 15:11 A   00 17 37.174968 -30 55 52.71910
 2018-Sep-13 15:12 A   00 17 37.175667 -30 55 52.48157
 2018-Sep-13 15:13 A   00 17 37.176420 -30 55 52.24381
 2018-Sep-13 15:14 A   00 17 37.177227 -30 55 52.00583
 2018-Sep-13 15:15 A   00 17 37.178090 -30 55 51.76763
 2018-Sep-13 15:16 A   00 17 37.179007 -30 55 51.52921
 2018-Sep-13 15:17 A   00 17 37.179979 -30 55 51.29057
 2018-Sep-13 15:18 A   00 17 37.181006 -30 55 51.05172
 2018-Sep-13 15:19 A   00 17 37.182089 -30 55 50.81266
 2018-Sep-13 15:20 A   00 17 37.183227 -30 55 50.57338
 2018-Sep-13 15:21 A   00 17 37.184420 -30 55 50.33390
 2018-Sep-13 15:22 N   00 17 37.185670 -30 55 50.09420
 2018-Sep-13 15:23 N   00 17 37.186975 -30 55 49.85430
 2018-Sep-13 15:24 N   00 17 37.188335 -30 55 49.61420
 2018-Sep-13 15:25 N   00 17 37.189752 -30 55 49.37389
 2018-Sep-13 15:26 N   00 17 37.191225 -30 55 49.13338
 2018-Sep-13 15:27 N   00 17 37.192754 -30 55 48.89267
 2018-Sep-13 15:28 N   00 17 37.194340 -30 55 48.65176
 2018-Sep-13 15:29 N   00 17 37.195982 -30 55 48.41066
 2018-Sep-13 15:30 N   00 17 37.197681 -30 55 48.16935
 2018-Sep-13 15:31 N   00 17 37.199436 -30 55 47.92786
 2018-Sep-13 15:32 N   00 17 37.201248 -30 55 47.68617
 2018-Sep-13 15:33 N   00 17 37.203117 -30 55 47.44430
 2018-Sep-13 15:34 N   00 17 37.205044 -30 55 47.20223
 2018-Sep-13 15:35 N   00 17 37.207027 -30 55 46.95998
 2018-Sep-13 15:36 N   00 17 37.209068 -30 55 46.71755
 2018-Sep-13 15:37 N   00 17 37.211166 -30 55 46.47493
 2018-Sep-13 15:38 N   00 17 37.213321 -30 55 46.23213
 2018-Sep-13 15:39 N   00 17 37.215534 -30 55 45.98915
 2018-Sep-13 15:40 N   00 17 37.217805 -30 55 45.74599
 2018-Sep-13 15:41 N   00 17 37.220134 -30 55 45.50266
 2018-Sep-13 15:42 N   00 17 37.222520 -30 55 45.25915
 2018-Sep-13 15:43 N   00 17 37.224965 -30 55 45.01546
 2018-Sep-13 15:44 N   00 17 37.227467 -30 55 44.77161
 2018-Sep-13 15:45 N   00 17 37.230028 -30 55 44.52759
 2018-Sep-13 15:46 N   00 17 37.232647 -30 55 44.28339
 2018-Sep-13 15:47 C   00 17 37.235325 -30 55 44.03904
 2018-Sep-13 15:48 C   00 17 37.238061 -30 55 43.79451
 2018-Sep-13 15:49 C   00 17 37.240856 -30 55 43.54983
 2018-Sep-13 15:50 C   00 17 37.243709 -30 55 43.30498
 2018-Sep-13 15:51 C   00 17 37.246621 -30 55 43.05998
 2018-Sep-13 15:52 C   00 17 37.249592 -30 55 42.81482
 2018-Sep-13 15:53 C   00 17 37.252622 -30 55 42.56950
 2018-Sep-13 15:54 C   00 17 37.255711 -30 55 42.32403
 2018-Sep-13 15:55 C   00 17 37.258859 -30 55 42.07840
 2018-Sep-13 15:56 C   00 17 37.262067 -30 55 41.83263
 2018-Sep-13 15:57 C   00 17 37.265333 -30 55 41.58671
 2018-Sep-13 15:58 C   00 17 37.268659 -30 55 41.34063
 2018-Sep-13 15:59 C   00 17 37.272045 -30 55 41.09442
